SZ-21 MODULE            
1 66515U 25246C   25331.83319784  .00028697  00000+0  32884-3 0  9998
2 66515  41.4759 106.9073 0005127 167.1136 192.9835 15.61449319  2115
SHENZHOU-22             
1 66645U 25272A   25331.84998818  .00016597  00000+0  21579-3 0  9998
2 66645  41.4664 107.0411 0010719 283.2651  76.6991 15.58344779261700
CZ-2F R/B               
1 66646U 25272B   25330.47076975  .00449059  75676-5  29319-3 0  9998
2 66646  41.4431 114.9009 0121079 133.7676 227.3272 16.01945612   217
